NORAD_CAT_ID,OBJECT_NAME,OBJECT_TYPE,EPOCH,MEAN_MOTION,ECCENTRICITY,INCLINATION,RA_OF_ASC_NODE,ARG_OF_PERICENTER,MEAN_ANOMALY,BSTAR,MEAN_MOTION_DOT,MEAN_MOTION_DDOT,TLE_LINE0,TLE_LINE1,TLE_LINE2,SEMIMAJOR_AXIS,PERIOD,APOGEE,PERIGEE,DECAYED
53720.0,STARLINK-4642,PAYLOAD,2022-09-12 16:00:00,15.78680929,0.0001020999999999,53.2174,235.6911,90.4545,6.8974,-0.0075379999999999,-0.01196221,0.0,0 STARLINK-4642,1 53720U 22107W   22255.66667824 -.01196221  00000-0 -75380-2 0  9999,2 53720  53.2174 235.6911 0001021  90.4545   6.8974 15.78680929  1302,6712.314,91.215,334.8640000000001,333.494,0.0
53720.0,STARLINK-4642,PAYLOAD,2022-09-13 06:00:00,15.77161779,0.0001339,53.2173,232.7854,59.1855,113.6969,-0.0080626999999999,-0.01194802,0.0,0 STARLINK-4642,1 53720U 22107W   22256.25001157 -.01194802  00000-0 -80627-2 0  9999,2 53720  53.2173 232.7854 0001339  59.1855 113.6969 15.77161779  1399,6716.624,91.303,339.3880000000001,337.589,0.0
53720.0,STARLINK-4642,PAYLOAD,2022-09-13 14:00:01,15.76295471,0.0001135,53.2174,231.1263,63.8769,202.1608,-0.0084031,-0.01197439,0.0,0 STARLINK-4642,1 53720U 22107W   22256.58334491 -.01197439  00000-0 -84031-2 0  9997,2 53720  53.2174 231.1263 0001135  63.8769 202.1608 15.76295471  1308,6719.084,91.353,341.712,340.1869999999999,0.0
53720.0,STARLINK-4642,PAYLOAD,2022-09-13 20:00:01,15.75641605,0.0001157,53.2173,229.8828,68.3593,176.8619,-0.00861,-0.0119244,0.0,0 STARLINK-4642,1 53720U 22107W   22256.83334491 -.01192440  00000-0 -86100-2 0  9991,2 53720  53.2173 229.8828 0001157  68.3593 176.8619 15.75641605  1488,6720.943,91.391,343.586,342.03,0.0
53720.0,STARLINK-4642,PAYLOAD,2022-09-13 22:00:00,15.75423071,0.0001064,53.2177,229.4691,109.1324,249.0192,-0.0086676,-0.01189223,0.0,0 STARLINK-4642,1 53720U 22107W   22256.91667824 -.01189223  00000-0 -86676-2 0  9992,2 53720  53.2177 229.4691 0001064 109.1324 249.0192 15.75423071  1304,6721.565,91.404,344.145,342.714,0.0
53720.0,STARLINK-4642,PAYLOAD,2022-09-14 14:00:01,15.73598309,0.0001242999999999,53.2166,226.1648,86.6064,92.6328,-0.0038693,-0.00520206,0.0,0 STARLINK-4642,1 53720U 22107W   22257.58334491 -.00520206  00000-0 -38693-2 0  9992,2 53720  53.2166 226.1648 0001243  86.6064  92.6328 15.73598309  1608,6726.76,91.51,349.461,347.789,0.0
53720.0,STARLINK-4642,PAYLOAD,2022-09-14 20:00:01,15.73200332,0.0001154,53.2172,224.9258,90.5324,65.6516,3.3594000000000004e-05,4.097e-05,0.0,0 STARLINK-4642,1 53720U 22107W   22257.83334491  .00004097  00000-0  33594-4 0  9990,2 53720  53.2172 224.9258 0001154  90.5324  65.6516 15.73200332  1641,6727.894,91.533,350.536,348.983,0.0
53720.0,STARLINK-4642,PAYLOAD,2022-09-14 22:00:00,15.73124912,0.0001147,53.2127,224.514,105.5917,162.6574,0.0011527999999999,0.00163833,0.0,0 STARLINK-4642,1 53720U 22107W   22257.91667824  .00163833  00000-0  11528-2 0  9993,2 53720  53.2127 224.5140 0001147 105.5917 162.6574 15.73124912  1308,6728.109,91.538,350.746,349.20300000000015,0.0
53720.0,STARLINK-4642,PAYLOAD,2022-09-15 04:00:00,15.73215926,0.0001169,53.2127,223.2787,94.485,150.4341,0.00031344,0.00043628,0.0,0 STARLINK-4642,1 53720U 22107W   22258.16667824  .00043628  00000-0  31344-3 0  9999,2 53720  53.2127 223.2787 0001169  94.4850 150.4341 15.73215926  1692,6727.85,91.532,350.501,348.92800000000005,0.0
53720.0,STARLINK-4642,PAYLOAD,2022-09-15 14:00:01,15.73299045,0.0001049,53.214,221.2157,99.3044,346.848,0.00019175,0.00026489,0.0,0 STARLINK-4642,1 53720U 22107W   22258.58334491  .00026489  00000-0  19175-3 0  9990,2 53720  53.2140 221.2157 0001049  99.3044 346.8480 15.73299045  1309,6727.613,91.527,350.184,348.772,0.0
53720.0,STARLINK-4642,PAYLOAD,2022-09-15 22:00:00,15.73346716,0.0001112,53.2147,219.5652,108.4787,66.7237,-0.00076712,-0.00107584,0.0,0 STARLINK-4642,1 53720U 22107W   22258.91667824 -.00107584  00000-0 -76712-3 0  9994,2 53720  53.2147 219.5652 0001112 108.4787  66.7237 15.73346716  1309,6727.477,91.525,350.09,348.594,0.0
53720.0,STARLINK-4642,PAYLOAD,2022-09-16 00:00:00,15.73338715,0.0001059,53.2147,219.1533,106.3334,181.1398,-0.00094647,-0.00132162,0.0,0 STARLINK-4642,1 53720U 22107W   22259.00001157 -.00132162  00000-0 -94647-3 0  9993,2 53720  53.2147 219.1533 0001059 106.3334 181.1398 15.73338715  1825,6727.5,91.525,350.077,348.652,0.0
53720.0,STARLINK-4642,PAYLOAD,2022-09-16 14:00:01,15.73183103,0.000117,53.2139,216.2666,106.1011,247.126,-0.00066215,-0.00092465,0.0,0 STARLINK-4642,1 53720U 22107W   22259.58334491 -.00092465  00000-0 -66215-3 0  9997,2 53720  53.2139 216.2666 0001170 106.1011 247.1260 15.73183103  1308,6727.943,91.534,350.596,349.021,0.0
53720.0,STARLINK-4642,PAYLOAD,2022-09-16 22:00:00,15.73139015,0.0001374,53.2141,214.6165,109.8636,332.2295,0.00040887,0.00057003,0.0,0 STARLINK-4642,1 53720U 22107W   22259.91667824  .00057003  00000-0  40887-3 0  9997,2 53720  53.2141 214.6165 0001374 109.8636 332.2295 15.73139015  1303,6728.069,91.537,350.858,349.01,0.0
53720.0,STARLINK-4642,PAYLOAD,2022-09-17 14:00:01,15.7323103,0.0001125,53.2142,211.3181,109.0413,150.8467,-0.00047747,-0.00067184,0.0,0 STARLINK-4642,1 53720U 22107W   22260.58334491 -.00067184  00000-0 -47747-3 0  9998,2 53720  53.2142 211.3181 0001125 109.0413 150.8467 15.73231030  1300,6727.807,91.531,350.42900000000014,348.915,0.0
53720.0,STARLINK-4642,PAYLOAD,2022-09-17 22:00:00,15.73203608,0.000113,53.2142,209.6682,114.507,234.3116,0.00030536,0.00042458,0.0,0 STARLINK-4642,1 53720U 22107W   22260.91667824  .00042458  00000-0  30536-3 0  9997,2 53720  53.2142 209.6682 0001130 114.5070 234.3116 15.73203608  1301,6727.885,91.533,350.51,348.99,0.0
53720.0,STARLINK-4642,PAYLOAD,2022-09-18 14:00:01,15.73227494,0.0001132,53.2134,206.3692,114.3398,52.466,-0.0004239,-0.00059759,0.0,0 STARLINK-4642,1 53720U 22107W   22261.58335648 -.00059759  00000-0 -42390-3 0  9992,2 53720  53.2134 206.3692 0001132 114.3398  52.4660 15.73227494  1302,6727.816999999999,91.532,350.4430000000001,348.92,0.0
53720.0,STARLINK-4642,PAYLOAD,2022-09-18 22:00:00,15.73201247,0.0001151,53.2136,204.7195,122.6975,132.9728,0.00035889,0.00050051,0.0,0 STARLINK-4642,1 53720U 22107W   22261.91667824  .00050051  00000-0  35889-3 0  9992,2 53720  53.2136 204.7195 0001151 122.6975 132.9728 15.73201247  2283,6727.892,91.533,350.531,348.982,0.0
53720.0,STARLINK-4642,PAYLOAD,2022-09-19 14:00:01,15.73197181,0.0001348,53.2139,201.4204,113.8789,319.7264,-0.00016876,-0.00024233,0.0,0 STARLINK-4642,1 53720U 22107W   22262.58334491 -.00024233  00000-0 -16876-3 0  9997,2 53720  53.2139 201.4204 0001348 113.8789 319.7264 15.73197181  2386,6727.903,91.533,350.675,348.861,0.0
53720.0,STARLINK-4642,PAYLOAD,2022-09-19 22:00:00,15.73201917,0.0001421,53.2139,199.7708,115.7991,46.7251,-0.00022613,-0.00032237,0.0,0 STARLINK-4642,1 53720U 22107W   22262.91667824 -.00032237  00000-0 -22613-3 0  9992,2 53720  53.2139 199.7708 0001421 115.7991  46.7251 15.73201917  1309,6727.89,91.533,350.711,348.7990000000001,0.0
53720.0,STARLINK-4642,PAYLOAD,2022-09-20 06:00:00,15.73174813,0.0001286,53.2135,198.1231,106.9413,144.499,0.00042515,0.00059405,0.0,0 STARLINK-4642,1 53720U 22107W   22263.25001157  .00059405  00000-0  42515-3 0  9998,2 53720  53.2135 198.1231 0001286 106.9413 144.4990 15.73174813  2490,6727.967,91.535,350.69699999999995,348.967,0.0
53720.0,STARLINK-4642,PAYLOAD,2022-09-20 14:00:01,15.73167225,0.0001517,53.2133,196.4716,117.227,223.1449,9.6293e-05,0.00012896,0.0,0 STARLINK-4642,1 53720U 22107W   22263.58334491  .00012896  00000-0  96293-4 0  9990,2 53720  53.2133 196.4716 0001517 117.2270 223.1449 15.73167225  2549,6727.989000000001,91.535,350.874,348.833,0.0
53720.0,STARLINK-4642,PAYLOAD,2022-09-20 22:00:01,15.73213812,0.000157,53.2136,194.8223,118.1882,311.1332,-1.4973e-05,-2.722e-05,0.0,0 STARLINK-4642,1 53720U 22107W   22263.91668981 -.00002722  00000-0 -14973-4 0  9995,2 53720  53.2136 194.8223 0001570 118.1882 311.1332 15.73213812  1301,6727.856,91.532,350.777,348.665,0.0
53720.0,STARLINK-4642,PAYLOAD,2022-09-21 22:00:00,15.73197677,0.000154,53.2142,189.8738,118.2857,217.724,0.0001359,0.00018493,0.0,0 STARLINK-4642,1 53720U 22107W   22264.91667824  .00018493  00000-0  13590-3 0  9994,2 53720  53.2142 189.8738 0001540 118.2857 217.7240 15.73197677  2752,6727.901999999999,91.533,350.80300000000005,348.731,0.0
53720.0,STARLINK-4642,PAYLOAD,2022-09-22 14:00:01,15.73172566,0.0001335,53.2138,186.5742,127.8888,26.0116,0.00050099,0.00070197,0.0,0 STARLINK-4642,1 53720U 22107W   22265.58334491  .00070197  00000-0  50099-3 0  9993,2 53720  53.2138 186.5742 0001335 127.8888  26.0116 15.73172566  1301,6727.973000000001,91.535,350.737,348.94,0.0
53720.0,STARLINK-4642,PAYLOAD,2022-09-22 22:00:00,15.73239081,0.0001462,53.2141,184.9254,125.1662,117.6596,-0.00043964,-0.00061972,0.0,0 STARLINK-4642,1 53720U 22107W   22265.91667824 -.00061972  00000-0 -43964-3 0  9995,2 53720  53.2141 184.9254 0001462 125.1662 117.6596 15.73239081  2910,6727.784000000002,91.531,350.63199999999995,348.665,0.0
53720.0,STARLINK-4642,PAYLOAD,2022-09-23 06:00:00,15.73193565,0.000128,53.2142,183.2772,118.8336,212.9395,0.00045611,0.00063862,0.0,0 STARLINK-4642,1 53720U 22107W   22266.25001157  .00063862  00000-0  45611-3 0  9993,2 53720  53.2142 183.2772 0001280 118.8336 212.9395 15.73193565  2960,6727.9140000000025,91.534,350.64,348.917,0.0
53720.0,STARLINK-4642,PAYLOAD,2022-09-23 14:00:01,15.73185737,0.0001333,53.2146,181.6255,133.5949,287.1361,0.00028579,0.00039654,0.0,0 STARLINK-4642,1 53720U 22107W   22266.58334491  .00039654  00000-0  28579-3 0  9995,2 53720  53.2146 181.6255 0001333 133.5949 287.1361 15.73185737  3011,6727.936,91.534,350.6980000000001,348.904,0.0
53720.0,STARLINK-4642,PAYLOAD,2022-09-23 20:00:01,15.73227928,0.0001367,53.2148,180.3885,130.0795,267.4011,9.1361e-05,0.00012236,0.0,0 STARLINK-4642,1 53720U 22107W   22266.83335648  .00012236  00000-0  91361-4 0  9995,2 53720  53.2148 180.3885 0001367 130.0795 267.4011 15.73227928  1308,6727.816,91.532,350.6,348.761,0.0
